*******************************************************************************
JPL/HORIZONS                4034 Vishnu (1986 PA)          2023-Sep-04 11:26:55
Rec #:    4034 (+COV) Soln.date: 2023-May-20_07:29:58    # obs: 686 (1986-2022)
 
IAU76/J2000 helio. ecliptic osc. elements (au, days, deg., period=Julian yrs):
 
  EPOCH=  2457980.5 ! 2017-Aug-15.00 (TDB)         Residual RMS= .30127
   EC= .4440228224996162   QR= .5891941155696506   TP= 2457921.7475092676
   OM= 157.9590200134452   W=  296.6184750538545   IN= 11.16879134679356
   A= 1.059745146767727    MA= 53.07966851945604   ADIST= 1.530296177965802
   PER= 1.09096            N= .903445418           ANGMOM= .015867104
   DAN= .70963             DDN= 1.06211            L= 95.0188277
   B= -9.972163699999999   MOID= .0191846          TP= 2017-Jun-17.2475092676
 
Asteroid physical parameters (km, seconds, rotational period in hours):
   GM= n.a.                RAD= .210               ROTPER= 44.4
   H= 18.52                G= .150                 B-V= n.a.
                           ALBEDO= .520            STYP= O

Asteroid non-gravitational force model (AMRAT= m^2/kg;A1,A2,A3=au/d^2;R0=au):
   AMRAT=  0.
   A1= 0.                  A2= -4.025166617794E-14 A3= 0.
 Non-standard or simulated/proxy model:
   ALN=  1.            NK=  0.       NM=  2.       NN=  5.093    R0=  1.

ASTEROID comments: 
1: soln ref.= JPL#116, PHA  OCC=0       radar( 0 delay, 1 Dop.)
2: source=ORB; Nongravitational accels. using nonstandard g(r) = (1 au/ r)^2
*******************************************************************************


*******************************************************************************
Ephemeris / API_USER Mon Sep  4 11:26:55 2023 Pasadena, USA      / Horizons
*******************************************************************************
Target body name: 4034 Vishnu (1986 PA)           {source: JPL#116}
Center body name: Solar System Barycenter (0)     {source: DE441}
Center-site name: BODY CENTER
*******************************************************************************
Start time      : A.D. 2023-Aug-12 00:00:00.0000 TDB
Stop  time      : A.D. 2023-Aug-13 00:00:00.0000 TDB
Step-size       : 2880 minutes
*******************************************************************************
Center geodetic : 0.0, 0.0, 0.0                   {E-lon(deg),Lat(deg),Alt(km)}
Center cylindric: 0.0, 0.0, 0.0                   {E-lon(deg),Dxy(km),Dz(km)}
Center radii    : (undefined)
Small perturbers: Yes                             {source: SB441-N16}
Output units    : KM-S
Calendar mode   : Mixed Julian/Gregorian
Output type     : GEOMETRIC cartesian states
Output format   : 2 (position and velocity)
Reference frame : Ecliptic of J2000.0
*******************************************************************************
Initial IAU76/J2000 heliocentric ecliptic osculating elements (au, days, deg.):
  EPOCH=  2457980.5 ! 2017-Aug-15.00 (TDB)         Residual RMS= .30127        
   EC= .4440228224996162   QR= .5891941155696506   TP= 2457921.7475092676      
   OM= 157.9590200134452   W=  296.6184750538545   IN= 11.16879134679356       
  Equivalent ICRF heliocentric cartesian coordinates (au, au/d):
   X=-9.012453396341769E-01  Y=-3.351381790396815E-01  Z=-1.036268324241476E-02
  VX=-1.868003889461740E-03 VY=-1.779905151381121E-02 VZ=-3.991850432099277E-03
Asteroid physical parameters (km, seconds, rotational period in hours):        
   GM= n.a.                RAD= .210               ROTPER= 44.4                
   H= 18.52                G= .150                 B-V= n.a.                   
                           ALBEDO= .520            STYP= O                     
Asteroid non-gravitational force model (AMRAT= m^2/kg;A1,A2,A3=au/d^2;R0=au):  
   AMRAT=  0.                                                                  
   A1= 0.                  A2= -4.025166617794E-14 A3= 0.                      
 Non-standard or simulated/proxy model:                                        
   ALN=  1.            NK=  0.       NM=  2.       NN=  5.093    R0=  1.       
*******************************************************************************
JDTDB
   X     Y     Z
   VX    VY    VZ
*******************************************************************************
$$SOE
2460168.500000000 = A.D. 2023-Aug-12 00:00:00.0000 TDB 
 X = 9.758280267428376E+07 Y =-1.902828785720520E+08 Z = 2.744638831825619E+07
 VX= 1.437263644027231E+01 VY= 1.315541734023137E+01 VZ=-3.476309335073353E+00
$$EOE
*******************************************************************************
 
TIME

  Barycentric Dynamical Time ("TDB" or T_eph) output was requested. This
continuous coordinate time is equivalent to the relativistic proper time
of a clock at rest in a reference frame co-moving with the solar system
barycenter but outside the system's gravity well. It is the independent
variable in the solar system relativistic equations of motion.

  TDB runs at a uniform rate of one SI second per second and is independent
of irregularities in Earth's rotation.
 
CALENDAR SYSTEM

  Mixed calendar mode was active such that calendar dates after AD 1582-Oct-15
(if any) are in the modern Gregorian system. Dates prior to 1582-Oct-5 (if any)
are in the Julian calendar system, which is automatically extended for dates
prior to its adoption on 45-Jan-1 BC.  The Julian calendar is useful for
matching historical dates. The Gregorian calendar more accurately corresponds
to the Earth's orbital motion and seasons. A "Gregorian-only" calendar mode is
available if such physical events are the primary interest.

REFERENCE FRAME AND COORDINATES

  Ecliptic at the standard reference epoch

    Reference epoch: J2000.0
    X-Y plane: adopted Earth orbital plane at the reference epoch
               Note: IAU76 obliquity of 84381.448 arcseconds wrt ICRF X-Y plane
    X-axis   : ICRF
    Z-axis   : perpendicular to the X-Y plane in the directional (+ or -) sense
               of Earth's north pole at the reference epoch.

  Symbol meaning:

    JDTDB    Julian Day Number, Barycentric Dynamical Time
      X      X-component of position vector (km)
      Y      Y-component of position vector (km)
      Z      Z-component of position vector (km)
      VX     X-component of velocity vector (km/sec)                           
      VY     Y-component of velocity vector (km/sec)                           
      VZ     Z-component of velocity vector (km/sec)                           

ABERRATIONS AND CORRECTIONS

 Geometric state vectors have NO corrections or aberrations applied.

Computations by ...

    Solar System Dynamics Group, Horizons On-Line Ephemeris System
    4800 Oak Grove Drive, Jet Propulsion Laboratory
    Pasadena, CA  91109   USA

    General site: https://ssd.jpl.nasa.gov/
    Mailing list: https://ssd.jpl.nasa.gov/email_list.html
    System news : https://ssd.jpl.nasa.gov/horizons/news.html
    User Guide  : https://ssd.jpl.nasa.gov/horizons/manual.html
    Connect     : browser        https://ssd.jpl.nasa.gov/horizons/app.html#/x
                  API            https://ssd-api.jpl.nasa.gov/doc/horizons.html
                  command-line   telnet ssd.jpl.nasa.gov 6775
                  e-mail/batch   https://ssd.jpl.nasa.gov/ftp/ssd/hrzn_batch.txt
                  scripts        https://ssd.jpl.nasa.gov/ftp/ssd/SCRIPTS
    Author      : Jon.D.Giorgini@jpl.nasa.gov
*******************************************************************************
